OBJECT_NAME,OBJECT_ID,EPOCH,MEAN_MOTION,ECCENTRICITY,INCLINATION,RA_OF_ASC_NODE,ARG_OF_PERICENTER,MEAN_ANOMALY,EPHEMERIS_TYPE,CLASSIFICATION_TYPE,NORAD_CAT_ID,ELEMENT_SET_NO,REV_AT_EPOCH,BSTAR,MEAN_MOTION_DOT,MEAN_MOTION_DDOT
ONEWEB-0495,2022-138C,2026-06-18T15:41:52.566432,13.19724950,.0001313,87.9171,304.6782,111.5351,248.5922,0,U,54115,999,17701,.35067E-4,.27E-6,0
ONEWEB-0497,2022-138D,2026-06-18T06:54:11.490336,13.19724967,.0001797,87.9178,304.7432,99.4959,260.6377,0,U,54116,999,17695,.75284E-5,.16E-6,0
ONEWEB-0499,2022-138E,2026-06-18T15:36:11.079072,13.19727181,.0001617,87.9172,304.6803,98.7345,261.3971,0,U,54117,999,17701,.24935E-3,.113E-5,0
ONEWEB-0500,2022-138F,2026-06-18T15:39:35.918784,13.19724659,.0001968,87.9179,304.6742,100.7334,259.4021,0,U,54118,999,17702,.10952E-3,.57E-6,0
ONEWEB-0501,2022-138G,2026-06-18T14:33:38.258784,13.19724001,.0001473,87.9179,304.6829,105.4594,254.6702,0,U,54119,999,17699,.14724E-3,.72E-6,0
ONEWEB-0502,2022-138H,2026-06-18T06:56:27.291264,13.19724597,.0001613,87.9179,304.7348,95.3819,264.7498,0,U,54120,999,17697,.35493E-4,.27E-6,0
ONEWEB-0503,2022-138J,2026-06-18T15:46:25.459104,13.19725241,.0001905,87.9182,304.6676,90.8955,269.2396,0,U,54121,999,17701,.23448E-3,.107E-5,0
ONEWEB-0504,2022-138K,2026-06-17T21:16:28.311456,13.19725042,.00016331,87.9179,304.8261,96.0610,264.0709,0,U,54122,999,17692,.70241319E-4,.41E-6,0
ONEWEB-0505,2022-138L,2026-06-18T15:23:41.001792,13.19726992,.0001391,87.9180,304.6768,100.6066,259.5223,0,U,54123,999,17700,.4735E-3,.203E-5,0
ONEWEB-0506,2022-138M,2026-06-18T14:47:16.631808,13.19724855,.0001557,87.9180,304.6787,101.6103,258.5204,0,U,54124,999,17699,.28447E-3,.127E-5,0
ONEWEB-0507,2022-138N,2026-06-18T15:16:51.712032,13.19724901,.0001697,87.9172,304.6868,102.4766,257.6557,0,U,54125,999,17704,.19017E-3,.89E-6,0
ONEWEB-0508,2022-138P,2026-06-18T15:12:18.054720,13.19724785,.0001563,87.9172,304.6869,109.9471,250.1830,0,U,54126,999,17702,.24835E-3,.112E-5,0
ONEWEB-0509,2022-138Q,2026-06-18T14:35:54.306816,13.19725779,.0001726,87.9182,304.6815,100.8983,259.2344,0,U,54127,999,17699,.51262E-4,.33E-6,0
ONEWEB-0510,2022-138R,2026-06-18T06:26:27.230208,13.20772550,.0002374,87.9196,274.2202,94.4877,265.6528,0,U,54128,999,17942,.36016E-4,.28E-6,0
ONEWEB-0511,2022-138S,2026-06-18T14:31:21.916992,13.19726954,.0001742,87.9177,304.6847,90.8882,269.2451,0,U,54129,999,17702,.15953E-3,.77E-6,0
ONEWEB-0512,2022-138T,2026-06-18T07:03:16.911072,13.19725110,.0001514,87.9170,304.7516,96.2834,263.8471,0,U,54130,999,17695,-.27495E-4,.2E-7,0
ONEWEB-0513,2022-138U,2026-06-18T16:16:22.135008,13.20269421,.0001073,87.9178,304.6192,77.7725,282.3528,0,U,54131,999,17691,.11051E-3,.58E-6,0
ONEWEB-0514,2022-138V,2026-06-18T07:26:01.771008,13.19725045,.0001992,87.9180,304.7423,96.7945,263.3414,0,U,54132,999,17697,.13496E-3,.67E-6,0
ONEWEB-0515,2022-138W,2026-06-18T13:23:25.013760,13.20770842,.0002784,87.9201,274.1572,109.0674,251.0761,0,U,54133,999,17948,.2879E-3,.13E-5,0
ONEWEB-0516,2022-138X,2026-06-18T15:55:30.482400,13.19725900,.0001824,87.9170,304.6780,102.6290,257.5047,0,U,54134,999,17702,.12897E-3,.65E-6,0
ONEWEB-0517,2022-138Y,2026-06-18T15:25:56.966880,13.19725031,.0001931,87.9179,304.6748,89.6823,270.4531,0,U,54135,999,17702,.28468E-3,.127E-5,0
ONEWEB-0518,2022-138Z,2026-06-18T15:53:15.463392,13.19728164,.0001857,87.9171,304.6804,104.8844,255.2495,0,U,54136,999,17702,-.21669E-3,-.74E-6,0
ONEWEB-0519,2022-138AA,2026-06-18T14:40:27.906240,13.19727554,.0001907,87.9184,304.6820,92.2871,267.8480,0,U,54137,999,17702,.20883E-3,.97E-6,0
ONEWEB-0520,2022-138AB,2026-06-18T15:30:30.461760,13.19724962,.0001635,87.9180,304.6752,102.9260,257.2056,0,U,54138,999,17701,.12365E-3,.62E-6,0
ONEWEB-0521,2022-138AC,2026-06-18T14:29:05.124192,13.19725616,.0001974,87.9180,304.6721,93.1315,267.0044,0,U,54139,999,17695,.23553E-3,.107E-5,0
ONEWEB-0522,2022-138AD,2026-06-18T15:48:41.977152,13.19725389,.0001728,87.9183,304.6637,99.7265,260.4063,0,U,54140,999,17700,.18746E-3,.88E-6,0
ONEWEB-0523,2022-138AE,2026-06-18T13:04:01.227360,13.20771521,.0002781,87.9197,274.1698,96.7659,263.3791,0,U,54141,999,17948,.24989E-3,.115E-5,0
ONEWEB-0524,2022-138AF,2026-06-18T16:27:39.593088,13.20771228,.0002651,87.9194,274.1387,114.6821,245.4589,0,U,54142,999,17950,.93512E-4,.51E-6,0
ONEWEB-0525,2022-138AG,2026-06-18T14:26:48.283008,13.19725949,.0001595,87.9178,304.6826,108.2918,251.8389,0,U,54143,999,17701,.13329E-3,.66E-6,0
ONEWEB-0526,2022-138AH,2026-06-18T15:14:34.284192,13.19726413,.0001827,87.9182,304.6766,103.0148,257.1189,0,U,54144,999,17699,.25662E-3,.116E-5,0
