ONEWEB-0495             
1 54115U 22138C   26169.65408063  .00000027  00000+0  35067-4 0  9991
2 54115  87.9171 304.6782 0001313 111.5351 248.5922 13.19724950177015
ONEWEB-0497             
1 54116U 22138D   26169.28763299  .00000016  00000+0  75284-5 0  9990
2 54116  87.9178 304.7432 0001797  99.4959 260.6377 13.19724967176959
ONEWEB-0499             
1 54117U 22138E   26169.65012823  .00000113  00000+0  24935-3 0  9995
2 54117  87.9172 304.6803 0001617  98.7345 261.3971 13.19727181177014
ONEWEB-0500             
1 54118U 22138F   26169.65249906  .00000057  00000+0  10952-3 0  9991
2 54118  87.9179 304.6742 0001968 100.7334 259.4021 13.19724659177027
ONEWEB-0501             
1 54119U 22138G   26169.60669281  .00000072  00000+0  14724-3 0  9997
2 54119  87.9179 304.6829 0001473 105.4594 254.6702 13.19724001176994
ONEWEB-0502             
1 54120U 22138H   26169.28920476  .00000027  00000+0  35493-4 0  9996
2 54120  87.9179 304.7348 0001613  95.3819 264.7498 13.19724597176978
ONEWEB-0503             
1 54121U 22138J   26169.65723911  .00000107  00000+0  23448-3 0  9998
2 54121  87.9182 304.6676 0001905  90.8955 269.2396 13.19725241177011
ONEWEB-0504             
1 54122U 22138K   26168.88643879  .00000041  00000+0  70241-4 0  9998
2 54122  87.9179 304.8261 0001633  96.0610 264.0709 13.19725042176923
ONEWEB-0505             
1 54123U 22138L   26169.64144678  .00000203  00000+0  47350-3 0  9991
2 54123  87.9180 304.6768 0001391 100.6066 259.5223 13.19726992177009
ONEWEB-0506             
1 54124U 22138M   26169.61616472  .00000127  00000+0  28447-3 0  9996
2 54124  87.9180 304.6787 0001557 101.6103 258.5204 13.19724855176999
ONEWEB-0507             
1 54125U 22138N   26169.63670963  .00000089  00000+0  19017-3 0  9994
2 54125  87.9172 304.6868 0001697 102.4766 257.6557 13.19724901177040
ONEWEB-0508             
1 54126U 22138P   26169.63354230  .00000112  00000+0  24835-3 0  9992
2 54126  87.9172 304.6869 0001563 109.9471 250.1830 13.19724785177029
ONEWEB-0509             
1 54127U 22138Q   26169.60826744  .00000033  00000+0  51262-4 0  9991
2 54127  87.9182 304.6815 0001726 100.8983 259.2344 13.19725779176990
ONEWEB-0510             
1 54128U 22138R   26169.26837072  .00000028  00000+0  36016-4 0  9994
2 54128  87.9196 274.2202 0002374  94.4877 265.6528 13.20772550179425
ONEWEB-0511             
1 54129U 22138S   26169.60511478  .00000077  00000+0  15953-3 0  9992
2 54129  87.9177 304.6847 0001742  90.8882 269.2451 13.19726954177026
ONEWEB-0512             
1 54130U 22138T   26169.29394573  .00000002  00000+0 -27495-4 0  9998
2 54130  87.9170 304.7516 0001514  96.2834 263.8471 13.19725110176955
ONEWEB-0513             
1 54131U 22138U   26169.67803397  .00000058  00000+0  11051-3 0  9990
2 54131  87.9178 304.6192 0001073  77.7725 282.3528 13.20269421176911
ONEWEB-0514             
1 54132U 22138V   26169.30974272  .00000067  00000+0  13496-3 0  9997
2 54132  87.9180 304.7423 0001992  96.7945 263.3414 13.19725045176974
ONEWEB-0515             
1 54133U 22138W   26169.55792840  .00000130  00000+0  28790-3 0  9998
2 54133  87.9201 274.1572 0002784 109.0674 251.0761 13.20770842179486
ONEWEB-0516             
1 54134U 22138X   26169.66354725  .00000065  00000+0  12897-3 0  9995
2 54134  87.9170 304.6780 0001824 102.6290 257.5047 13.19725900177028
ONEWEB-0517             
1 54135U 22138Y   26169.64302045  .00000127  00000+0  28468-3 0  9992
2 54135  87.9179 304.6748 0001931  89.6823 270.4531 13.19725031177024
ONEWEB-0518             
1 54136U 22138Z   26169.66198453 -.00000074  00000+0 -21669-3 0  9990
2 54136  87.9171 304.6804 0001857 104.8844 255.2495 13.19728164177020
ONEWEB-0519             
1 54137U 22138AA  26169.61143410  .00000097  00000+0  20883-3 0  9999
2 54137  87.9184 304.6820 0001907  92.2871 267.8480 13.19727554177024
ONEWEB-0520             
1 54138U 22138AB  26169.64618590  .00000062  00000+0  12365-3 0  9997
2 54138  87.9180 304.6752 0001635 102.9260 257.2056 13.19724962177015
ONEWEB-0521             
1 54139U 22138AC  26169.60353153  .00000107  00000+0  23553-3 0  9996
2 54139  87.9180 304.6721 0001974  93.1315 267.0044 13.19725616176955
ONEWEB-0522             
1 54140U 22138AD  26169.65881918  .00000088  00000+0  18746-3 0  9994
2 54140  87.9183 304.6637 0001728  99.7265 260.4063 13.19725389177001
ONEWEB-0523             
1 54141U 22138AE  26169.54445865  .00000115  00000+0  24989-3 0  9997
2 54141  87.9197 274.1698 0002781  96.7659 263.3791 13.20771521179484
ONEWEB-0524             
1 54142U 22138AF  26169.68587492  .00000051  00000+0  93512-4 0  9994
2 54142  87.9194 274.1387 0002651 114.6821 245.4589 13.20771228179507
ONEWEB-0525             
1 54143U 22138AG  26169.60194772  .00000066  00000+0  13329-3 0  9995
2 54143  87.9178 304.6826 0001595 108.2918 251.8389 13.19725949177019
ONEWEB-0526             
1 54144U 22138AH  26169.63511903  .00000116  00000+0  25662-3 0  9997
2 54144  87.9182 304.6766 0001827 103.0148 257.1189 13.19726413176994
